{"type": "FeatureCollection", "features": [ {"type": "Feature", "properties": {"norad_id": 30110, "name": "FENGYUN 1C DEB", "group": "fengyun-1c-debris", "lat": 46.2366687401167, "lon": -83.93985797877909, "alt_km": 1123.4039271368802, "timestamp": "2025-12-02T21:34:01.545057+00:00", "meta": {"OBJECT_NAME": "FENGYUN 1C DEB", "OBJECT_ID": "1999-025RP", "EPOCH": "2025-12-02T06:46:05.483424", "MEAN_MOTION": 13.56217989, "ECCENTRICITY": 0.0268033, "INCLINATION": 98.9078, "RA_OF_ASC_NODE": 86.0773, "ARG_OF_PERICENTER": 20.0568, "MEAN_ANOMALY": 341.0871, "EPHEMERIS_TYPE": 0, "CLASSIFICATION_TYPE": "U", "NORAD_CAT_ID": 30110, "ELEMENT_SET_NO": 999, "REV_AT_EPOCH": 93373, "BSTAR": 0.00028782, "MEAN_MOTION_DOT": 2.17e-06, "MEAN_MOTION_DDOT": 0}, "tle": {"line1": "1 30110U 99025RP  25336.28200791  .00000217  00000+0  28782-3 0  9997", "line2": "2 30110  98.9078  86.0773 0268033  20.0568 341.0871 13.56217989933732"}}, "geometry": {"type": "Point", "coordinates": [-83.93985797877909, 46.2366687401167]}}, {"type": "Feature", "properties": {"norad_id": 30112, "name": "FENGYUN 1C DEB", "group": "fengyun-1c-debris", "lat": 33.71416418745184, "lon": 136.59135066475707, "alt_km": 672.9307480879124, "timestamp": "2025-12-02T21:34:01.545067+00:00", "meta": {"OBJECT_NAME": "FENGYUN 1C DEB", "OBJECT_ID": "1999-025RR", "EPOCH": "2025-12-02T07:23:08.841408", "MEAN_MOTION": 14.22179973, "ECCENTRICITY": 0.0201507, "INCLINATION": 99.2807, "RA_OF_ASC_NODE": 309.7054, "ARG_OF_PERICENTER": 137.2246, "MEAN_ANOMALY": 224.4812, "EPHEMERIS_TYPE": 0, "CLASSIFICATION_TYPE": "U", "NORAD_CAT_ID": 30112, "ELEMENT_SET_NO": 999, "REV_AT_EPOCH": 97434, "BSTAR": 0.0005343, "MEAN_MOTION_DOT": 1.407e-05, "MEAN_MOTION_DDOT": 0}, "tle": {"line1": "1 30112U 99025RR  25336.30774122  .00001407  00000+0  53430-3 0  9996", "line2": "2 30112  99.2807 309.7054 0201507 137.2246 224.4812 14.22179973974347"}}, "geometry": {"type": "Point", "coordinates": [136.59135066475707, 33.71416418745184]}}, {"type": "Feature", "properties": {"norad_id": 30113, "name": "FENGYUN 1C DEB", "group": "fengyun-1c-debris", "lat": -68.28396539678197, "lon": -147.99461881604526, "alt_km": 753.9778181732154, "timestamp": "2025-12-02T21:34:01.545078+00:00", "meta": {"OBJECT_NAME": "FENGYUN 1C DEB", "OBJECT_ID": "1999-025RS", "EPOCH": "2025-12-02T12:12:12.551040", "MEAN_MOTION": 14.4510788, "ECCENTRICITY": 0.0040655, "INCLINATION": 99.0379, "RA_OF_ASC_NODE": 188.0347, "ARG_OF_PERICENTER": 31.4078, "MEAN_ANOMALY": 30.3625, "EPHEMERIS_TYPE": 0, "CLASSIFICATION_TYPE": "U", "NORAD_CAT_ID": 30113, "ELEMENT_SET_NO": 999, "REV_AT_EPOCH": 97761, "BSTAR": 0.0022946, "MEAN_MOTION_DOT": 8.065e-05, "MEAN_MOTION_DDOT": 0}, "tle": {"line1": "1 30113U 99025RS  25336.50847860  .00008065  00000+0  22946-2 0  9993", "line2": "2 30113  99.0379 188.0347 0040655  31.4078  30.3625 14.45107880977618"}}, "geometry": {"type": "Point", "coordinates": [-147.99461881604526, -68.28396539678197]}}, {"type": "Feature", "properties": {"norad_id": 30114, "name": "FENGYUN 1C DEB", "group": "fengyun-1c-debris", "lat": -75.23547995825558, "lon": 123.79567896008506, "alt_km": 888.3863352379294, "timestamp": "2025-12-02T21:34:01.545088+00:00", "meta": {"OBJECT_NAME": "FENGYUN 1C DEB", "OBJECT_ID": "1999-025RT", "EPOCH": "2025-12-02T12:24:10.047744", "MEAN_MOTION": 14.09641424, "ECCENTRICITY": 0.0081881, "INCLINATION": 98.7468, "RA_OF_ASC_NODE": 339.1683, "ARG_OF_PERICENTER": 148.454, "MEAN_ANOMALY": 332.0245, "EPHEMERIS_TYPE": 0, "CLASSIFICATION_TYPE": "U", "NORAD_CAT_ID": 30114, "ELEMENT_SET_NO": 999, "REV_AT_EPOCH": 97010, "BSTAR": 0.00023124, "MEAN_MOTION_DOT": 3.76e-06, "MEAN_MOTION_DDOT": 0}, "tle": {"line1": "1 30114U 99025RT  25336.51678296  .00000376  00000+0  23124-3 0  9997", "line2": "2 30114  98.7468 339.1683 0081881 148.4540 332.0245 14.09641424970109"}}, "geometry": {"type": "Point", "coordinates": [123.79567896008506, -75.23547995825558]}}, {"type": "Feature", "properties": {"norad_id": 30115, "name": "FENGYUN 1C DEB", "group": "fengyun-1c-debris", "lat": -30.054457926529736, "lon": 9.478049373635868, "alt_km": 856.0773296358229, "timestamp": "2025-12-02T21:34:01.545098+00:00", "meta": {"OBJECT_NAME": "FENGYUN 1C DEB", "OBJECT_ID": "1999-025RU", "EPOCH": "2025-12-02T01:40:12.537984", "MEAN_MOTION": 14.19709826, "ECCENTRICITY": 0.00682717, "INCLINATION": 98.624, "RA_OF_ASC_NODE": 3.6328, "ARG_OF_PERICENTER": 91.4146, "MEAN_ANOMALY": 324.1444, "EPHEMERIS_TYPE": 0, "CLASSIFICATION_TYPE": "U", "NORAD_CAT_ID": 30115, "ELEMENT_SET_NO": 999, "REV_AT_EPOCH": 97177, "BSTAR": 0.0010925575, "MEAN_MOTION_DOT": 2.324e-05, "MEAN_MOTION_DDOT": 0}, "tle": {"line1": "1 30115U 99025RU  25336.06958956  .00002324  00000+0  10926-2 0  9992", "line2": "2 30115  98.6240   3.6328 0068271  91.4146 324.1444 14.19709826971772"}}, "geometry": {"type": "Point", "coordinates": [9.478049373635868, -30.054457926529736]}}, {"type": "Feature", "properties": {"norad_id": 30116, "name": "FENGYUN 1C DEB", "group": "fengyun-1c-debris", "lat": -77.25876879144394, "lon": 94.27142259725976, "alt_km": 802.6934550958249, "timestamp": "2025-12-02T21:34:01.545108+00:00", "meta": {"OBJECT_NAME": "FENGYUN 1C DEB", "OBJECT_ID": "1999-025RV", "EPOCH": "2025-12-01T04:14:47.552928", "MEAN_MOTION": 14.29152719, "ECCENTRICITY": 0.00207155, "INCLINATION": 99.3996, "RA_OF_ASC_NODE": 45.3134, "ARG_OF_PERICENTER": 17.1194, "MEAN_ANOMALY": 48.6501, "EPHEMERIS_TYPE": 0, "CLASSIFICATION_TYPE": "U", "NORAD_CAT_ID": 30116, "ELEMENT_SET_NO": 999, "REV_AT_EPOCH": 97344, "BSTAR": 0.0015451891, "MEAN_MOTION_DOT": 3.881e-05, "MEAN_MOTION_DDOT": 0}, "tle": {"line1": "1 30116U 99025RV  25335.17693927  .00003881  00000+0  15452-2 0  9996", "line2": "2 30116  99.3996  45.3134 0020715  17.1194  48.6501 14.29152719973448"}}, "geometry": {"type": "Point", "coordinates": [94.27142259725976, -77.25876879144394]}}, {"type": "Feature", "properties": {"norad_id": 30117, "name": "FENGYUN 1C DEB", "group": "fengyun-1c-debris", "lat": -77.68114340640801, "lon": 100.39794481457919, "alt_km": 768.2554978383196, "timestamp": "2025-12-02T21:34:01.545118+00:00", "meta": {"OBJECT_NAME": "FENGYUN 1C DEB", "OBJECT_ID": "1999-025RW", "EPOCH": "2025-12-02T10:54:09.767808", "MEAN_MOTION": 14.07150005, "ECCENTRICITY": 0.0163336, "INCLINATION": 98.8032, "RA_OF_ASC_NODE": 325.1676, "ARG_OF_PERICENTER": 238.2431, "MEAN_ANOMALY": 292.6205, "EPHEMERIS_TYPE": 0, "CLASSIFICATION_TYPE": "U", "NORAD_CAT_ID": 30117, "ELEMENT_SET_NO": 999, "REV_AT_EPOCH": 96844, "BSTAR": 0.00025045, "MEAN_MOTION_DOT": 4.29e-06, "MEAN_MOTION_DDOT": 0}, "tle": {"line1": "1 30117U 99025RW  25336.45427972  .00000429  00000+0  25045-3 0  9999", "line2": "2 30117  98.8032 325.1676 0163336 238.2431 292.6205 14.07150005968449"}}, "geometry": {"type": "Point", "coordinates": [100.39794481457919, -77.68114340640801]}}, {"type": "Feature", "properties": {"norad_id": 30118, "name": "FENGYUN 1C DEB", "group": "fengyun-1c-debris", "lat": 63.50881219671092, "lon": -37.188211472447755, "alt_km": 812.4226180840915, "timestamp": "2025-12-02T21:34:01.545132+00:00", "meta": {"OBJECT_NAME": "FENGYUN 1C DEB", "OBJECT_ID": "1999-025RX", "EPOCH": "2025-12-02T11:43:58.445760", "MEAN_MOTION": 14.05113781, "ECCENTRICITY": 0.0085411, "INCLINATION": 98.8032, "RA_OF_ASC_NODE": 340.5292, "ARG_OF_PERICENTER": 88.2294, "MEAN_ANOMALY": 65.522, "EPHEMERIS_TYPE": 0, "CLASSIFICATION_TYPE": "U", "NORAD_CAT_ID": 30118, "ELEMENT_SET_NO": 999, "REV_AT_EPOCH": 96787, "BSTAR": 0.00022001, "MEAN_MOTION_DOT": 3.25e-06, "MEAN_MOTION_DDOT": 0}, "tle": {"line1": "1 30118U 99025RX  25336.48887090  .00000325  00000+0  22001-3 0  9998", "line2": "2 30118  98.8032 340.5292 0085411  88.2294  65.5220 14.05113781967870"}}, "geometry": {"type": "Point", "coordinates": [-37.188211472447755, 63.50881219671092]}}, {"type": "Feature", "properties": {"norad_id": 30119, "name": "FENGYUN 1C DEB", "group": "fengyun-1c-debris", "lat": 58.40057182568708, "lon": 164.94553740001757, "alt_km": 900.6899137269174, "timestamp": "2025-12-02T21:34:01.545143+00:00", "meta": {"OBJECT_NAME": "FENGYUN 1C DEB", "OBJECT_ID": "1999-025RY", "EPOCH": "2025-12-02T11:35:40.092288", "MEAN_MOTION": 14.22102576, "ECCENTRICITY": 0.0131788, "INCLINATION": 97.9195, "RA_OF_ASC_NODE": 331.4947, "ARG_OF_PERICENTER": 323.3347, "MEAN_ANOMALY": 190.6528, "EPHEMERIS_TYPE": 0, "CLASSIFICATION_TYPE": "U", "NORAD_CAT_ID": 30119, "ELEMENT_SET_NO": 999, "REV_AT_EPOCH": 97034, "BSTAR": 0.0022909, "MEAN_MOTION_DOT": 5.506e-05, "MEAN_MOTION_DDOT": 0}, "tle": {"line1": "1 30119U 99025RY  25336.48310292  .00005506  00000+0  22909-2 0  9996", "line2": "2 30119  97.9195 331.4947 0131788 323.3347 190.6528 14.22102576970344"}}, "geometry": {"type": "Point", "coordinates": [164.94553740001757, 58.40057182568708]}}, {"type": "Feature", "properties": {"norad_id": 30120, "name": "FENGYUN 1C DEB", "group": "fengyun-1c-debris", "lat": -68.90823842698882, "lon": -145.16316849463684, "alt_km": 763.0765245198027, "timestamp": "2025-12-02T21:34:01.545153+00:00", "meta": {"OBJECT_NAME": "FENGYUN 1C DEB", "OBJECT_ID": "1999-025RZ", "EPOCH": "2025-12-01T18:04:57.501120", "MEAN_MOTION": 14.27429728, "ECCENTRICITY": 0.00630851, "INCLINATION": 98.8526, "RA_OF_ASC_NODE": 57.5099, "ARG_OF_PERICENTER": 242.9903, "MEAN_ANOMALY": 246.0918, "EPHEMERIS_TYPE": 0, "CLASSIFICATION_TYPE": "U", "NORAD_CAT_ID": 30120, "ELEMENT_SET_NO": 999, "REV_AT_EPOCH": 97214, "BSTAR": 0.0020058862, "MEAN_MOTION_DOT": 4.983e-05, "MEAN_MOTION_DDOT": 0}, "tle": {"line1": "1 30120U 99025RZ  25335.75344330  .00004983  00000+0  20059-2 0  9999", "line2": "2 30120  98.8526  57.5099 0063085 242.9903 246.0918 14.27429728972141"}}, "geometry": {"type": "Point", "coordinates": [-145.16316849463684, -68.90823842698882]}}]}